{"type": "FeatureCollection", "features": [ {"type": "Feature", "properties": {"norad_id": 37280, "name": "COSMOS 2251 DEB", "group": "cosmos-2251-debris", "lat": 54.286046455734045, "lon": -149.077629922918, "alt_km": 774.3743678049777, "timestamp": "2025-12-14T05:42:18.860460+00:00", "meta": {"OBJECT_NAME": "COSMOS 2251 DEB", "OBJECT_ID": "1993-036BHU", "EPOCH": "2025-12-11T21:18:02.152224", "MEAN_MOTION": 14.19307625, "ECCENTRICITY": 0.0131129, "INCLINATION": 74.0314, "RA_OF_ASC_NODE": 58.592, "ARG_OF_PERICENTER": 187.3743, "MEAN_ANOMALY": 172.5477, "EPHEMERIS_TYPE": 0, "CLASSIFICATION_TYPE": "U", "NORAD_CAT_ID": 37280, "ELEMENT_SET_NO": 999, "REV_AT_EPOCH": 57311, "BSTAR": 0.0026008, "MEAN_MOTION_DOT": 5.928e-05, "MEAN_MOTION_DDOT": 0}, "tle": {"line1": "1 37280U 93036BHU 25345.88752491  .00005928  00000+0  26008-2 0  9995", "line2": "2 37280  74.0314  58.5920 0131129 187.3743 172.5477 14.19307625573118"}}, "geometry": {"type": "Point", "coordinates": [-149.077629922918, 54.286046455734045]}}, {"type": "Feature", "properties": {"norad_id": 37284, "name": "COSMOS 2251 DEB", "group": "cosmos-2251-debris", "lat": 73.95221377974316, "lon": -120.59197459691077, "alt_km": 934.8968979448764, "timestamp": "2025-12-14T05:42:18.860470+00:00", "meta": {"OBJECT_NAME": "COSMOS 2251 DEB", "OBJECT_ID": "1993-036BHY", "EPOCH": "2025-12-10T18:04:20.469216", "MEAN_MOTION": 14.12686618, "ECCENTRICITY": 0.01605026, "INCLINATION": 74.0123, "RA_OF_ASC_NODE": 160.2425, "ARG_OF_PERICENTER": 312.4867, "MEAN_ANOMALY": 59.8736, "EPHEMERIS_TYPE": 0, "CLASSIFICATION_TYPE": "U", "NORAD_CAT_ID": 37284, "ELEMENT_SET_NO": 999, "REV_AT_EPOCH": 59147, "BSTAR": 0.001592138, "MEAN_MOTION_DOT": 3.31e-05, "MEAN_MOTION_DDOT": 0}, "tle": {"line1": "1 37284U 93036BHY 25344.75301469  .00003310  00000+0  15921-2 0  9994", "line2": "2 37284  74.0123 160.2425 0160502 312.4867  59.8736 14.12686618591475"}}, "geometry": {"type": "Point", "coordinates": [-120.59197459691077, 73.95221377974316]}}, {"type": "Feature", "properties": {"norad_id": 37292, "name": "COSMOS 2251 DEB", "group": "cosmos-2251-debris", "lat": 17.883787557499293, "lon": -138.08617784298698, "alt_km": 934.869783263016, "timestamp": "2025-12-14T05:42:18.860480+00:00", "meta": {"OBJECT_NAME": "COSMOS 2251 DEB", "OBJECT_ID": "1993-036BJG", "EPOCH": "2025-12-02T14:04:30.366912", "MEAN_MOTION": 14.03226454, "ECCENTRICITY": 0.02102512, "INCLINATION": 74.129, "RA_OF_ASC_NODE": 67.3453, "ARG_OF_PERICENTER": 73.1105, "MEAN_ANOMALY": 289.2966, "EPHEMERIS_TYPE": 0, "CLASSIFICATION_TYPE": "U", "NORAD_CAT_ID": 37292, "ELEMENT_SET_NO": 999, "REV_AT_EPOCH": 59706, "BSTAR": 0.0022453288, "MEAN_MOTION_DOT": 4.236e-05, "MEAN_MOTION_DDOT": 0}, "tle": {"line1": "1 37292U 93036BJG 25336.58646258  .00004236  00000+0  22453-2 0  9999", "line2": "2 37292  74.1290  67.3453 0210251  73.1105 289.2966 14.03226454597064"}}, "geometry": {"type": "Point", "coordinates": [-138.08617784298698, 17.883787557499293]}}, {"type": "Feature", "properties": {"norad_id": 37295, "name": "COSMOS 2251 DEB", "group": "cosmos-2251-debris", "lat": 44.53461548440776, "lon": -64.87245472332478, "alt_km": 652.4473752559761, "timestamp": "2025-12-14T05:42:18.860491+00:00", "meta": {"OBJECT_NAME": "COSMOS 2251 DEB", "OBJECT_ID": "1993-036BJK", "EPOCH": "2025-12-13T13:06:23.160960", "MEAN_MOTION": 14.65245888, "ECCENTRICITY": 0.00438082, "INCLINATION": 74.0063, "RA_OF_ASC_NODE": 280.069, "ARG_OF_PERICENTER": 99.0616, "MEAN_ANOMALY": 261.5513, "EPHEMERIS_TYPE": 0, "CLASSIFICATION_TYPE": "U", "NORAD_CAT_ID": 37295, "ELEMENT_SET_NO": 999, "REV_AT_EPOCH": 82316, "BSTAR": 0.00074329586, "MEAN_MOTION_DOT": 4.033e-05, "MEAN_MOTION_DDOT": 0}, "tle": {"line1": "1 37295U 93036BJK 25347.54610140  .00004033  00000+0  74330-3 0  9998", "line2": "2 37295  74.0063 280.0690 0043808  99.0616 261.5513 14.65245888823161"}}, "geometry": {"type": "Point", "coordinates": [-64.87245472332478, 44.53461548440776]}}, {"type": "Feature", "properties": {"norad_id": 37305, "name": "COSMOS 2251 DEB", "group": "cosmos-2251-debris", "lat": 31.219679876787694, "lon": -62.160557586169055, "alt_km": 798.3557427421956, "timestamp": "2025-12-14T05:42:18.860501+00:00", "meta": {"OBJECT_NAME": "COSMOS 2251 DEB", "OBJECT_ID": "1993-036BJV", "EPOCH": "2025-12-13T12:50:04.816608", "MEAN_MOTION": 14.36140847, "ECCENTRICITY": 0.00500253, "INCLINATION": 73.8697, "RA_OF_ASC_NODE": 289.0409, "ARG_OF_PERICENTER": 249.3262, "MEAN_ANOMALY": 110.2523, "EPHEMERIS_TYPE": 0, "CLASSIFICATION_TYPE": "U", "NORAD_CAT_ID": 37305, "ELEMENT_SET_NO": 999, "REV_AT_EPOCH": 66878, "BSTAR": 0.00092453159, "MEAN_MOTION_DOT": 2.706e-05, "MEAN_MOTION_DDOT": 0}, "tle": {"line1": "1 37305U 93036BJV 25347.53477797  .00002706  00000+0  92453-3 0  9999", "line2": "2 37305  73.8697 289.0409 0050025 249.3262 110.2523 14.36140847668789"}}, "geometry": {"type": "Point", "coordinates": [-62.160557586169055, 31.219679876787694]}}, {"type": "Feature", "properties": {"norad_id": 37312, "name": "COSMOS 2251 DEB", "group": "cosmos-2251-debris", "lat": 48.59769277902598, "lon": 2.4362876060402305, "alt_km": 746.5579551333867, "timestamp": "2025-12-14T05:42:18.860511+00:00", "meta": {"OBJECT_NAME": "COSMOS 2251 DEB", "OBJECT_ID": "1993-036BKC", "EPOCH": "2025-12-09T00:35:23.995392", "MEAN_MOTION": 14.46107555, "ECCENTRICITY": 0.00182852, "INCLINATION": 74.0311, "RA_OF_ASC_NODE": 211.115, "ARG_OF_PERICENTER": 314.7028, "MEAN_ANOMALY": 45.264, "EPHEMERIS_TYPE": 0, "CLASSIFICATION_TYPE": "U", "NORAD_CAT_ID": 37312, "ELEMENT_SET_NO": 999, "REV_AT_EPOCH": 86110, "BSTAR": 0.00057614872, "MEAN_MOTION_DOT": 2.035e-05, "MEAN_MOTION_DDOT": 0}, "tle": {"line1": "1 37312U 93036BKC 25343.02458328  .00002035  00000+0  57615-3 0  9992", "line2": "2 37312  74.0311 211.1150 0018285 314.7028  45.2640 14.46107555861109"}}, "geometry": {"type": "Point", "coordinates": [2.4362876060402305, 48.59769277902598]}}, {"type": "Feature", "properties": {"norad_id": 37316, "name": "COSMOS 2251 DEB", "group": "cosmos-2251-debris", "lat": -45.91107342116231, "lon": -144.7437994770678, "alt_km": 606.2139930674148, "timestamp": "2025-12-14T05:42:18.860521+00:00", "meta": {"OBJECT_NAME": "COSMOS 2251 DEB", "OBJECT_ID": "1993-036BKG", "EPOCH": "2025-12-12T12:31:34.871232", "MEAN_MOTION": 14.94485363, "ECCENTRICITY": 0.0029307, "INCLINATION": 74.0203, "RA_OF_ASC_NODE": 21.5089, "ARG_OF_PERICENTER": 89.6992, "MEAN_ANOMALY": 270.755, "EPHEMERIS_TYPE": 0, "CLASSIFICATION_TYPE": "U", "NORAD_CAT_ID": 37316, "ELEMENT_SET_NO": 999, "REV_AT_EPOCH": 86140, "BSTAR": 0.0028276502, "MEAN_MOTION_DOT": 0.00030882, "MEAN_MOTION_DDOT": 0}, "tle": {"line1": "1 37316U 93036BKG 25346.52193138  .00030882  00000+0  28277-2 0  9991", "line2": "2 37316  74.0203  21.5089 0029307  89.6992 270.7550 14.94485363861409"}}, "geometry": {"type": "Point", "coordinates": [-144.7437994770678, -45.91107342116231]}}, {"type": "Feature", "properties": {"norad_id": 37320, "name": "COSMOS 2251 DEB", "group": "cosmos-2251-debris", "lat": -72.33898026012213, "lon": 151.25894460845552, "alt_km": 609.9698061875115, "timestamp": "2025-12-14T05:42:18.860531+00:00", "meta": {"OBJECT_NAME": "COSMOS 2251 DEB", "OBJECT_ID": "1993-036BKL", "EPOCH": "2025-12-13T08:58:01.720128", "MEAN_MOTION": 14.78797296, "ECCENTRICITY": 0.0046925, "INCLINATION": 74.0458, "RA_OF_ASC_NODE": 216.9169, "ARG_OF_PERICENTER": 303.7663, "MEAN_ANOMALY": 55.9046, "EPHEMERIS_TYPE": 0, "CLASSIFICATION_TYPE": "U", "NORAD_CAT_ID": 37320, "ELEMENT_SET_NO": 999, "REV_AT_EPOCH": 66156, "BSTAR": 0.0014339951, "MEAN_MOTION_DOT": 0.00010723, "MEAN_MOTION_DDOT": 0}, "tle": {"line1": "1 37320U 93036BKL 25347.37363102  .00010723  00000+0  14340-2 0  9998", "line2": "2 37320  74.0458 216.9169 0046925 303.7663  55.9046 14.78797296661566"}}, "geometry": {"type": "Point", "coordinates": [151.25894460845552, -72.33898026012213]}}, {"type": "Feature", "properties": {"norad_id": 37326, "name": "COSMOS 2251 DEB", "group": "cosmos-2251-debris", "lat": 29.271527918820574, "lon": -18.93418119013247, "alt_km": 672.7691207392199, "timestamp": "2025-12-14T05:42:18.860542+00:00", "meta": {"OBJECT_NAME": "COSMOS 2251 DEB", "OBJECT_ID": "1993-036BKS", "EPOCH": "2025-12-12T07:34:09.729696", "MEAN_MOTION": 14.61572404, "ECCENTRICITY": 0.00547779, "INCLINATION": 74.0262, "RA_OF_ASC_NODE": 335.5049, "ARG_OF_PERICENTER": 104.6745, "MEAN_ANOMALY": 256.0503, "EPHEMERIS_TYPE": 0, "CLASSIFICATION_TYPE": "U", "NORAD_CAT_ID": 37326, "ELEMENT_SET_NO": 999, "REV_AT_EPOCH": 85477, "BSTAR": 0.00081564532, "MEAN_MOTION_DOT": 4.11e-05, "MEAN_MOTION_DDOT": 0}, "tle": {"line1": "1 37326U 93036BKS 25346.31539039  .00004110  00000+0  81565-3 0  9998", "line2": "2 37326  74.0262 335.5049 0054777 104.6745 256.0503 14.61572404854776"}}, "geometry": {"type": "Point", "coordinates": [-18.93418119013247, 29.271527918820574]}}, {"type": "Feature", "properties": {"norad_id": 37330, "name": "COSMOS 2251 DEB", "group": "cosmos-2251-debris", "lat": 15.62518492353123, "lon": -63.175062180403586, "alt_km": 717.4296863971385, "timestamp": "2025-12-14T05:42:18.860552+00:00", "meta": {"OBJECT_NAME": "COSMOS 2251 DEB", "OBJECT_ID": "1993-036BKW", "EPOCH": "2025-12-13T13:10:48.219744", "MEAN_MOTION": 14.59543313, "ECCENTRICITY": 0.00569835, "INCLINATION": 74.0177, "RA_OF_ASC_NODE": 293.5413, "ARG_OF_PERICENTER": 141.8805, "MEAN_ANOMALY": 218.6413, "EPHEMERIS_TYPE": 0, "CLASSIFICATION_TYPE": "U", "NORAD_CAT_ID": 37330, "ELEMENT_SET_NO": 999, "REV_AT_EPOCH": 86380, "BSTAR": 0.00043870058, "MEAN_MOTION_DOT": 2.102e-05, "MEAN_MOTION_DDOT": 0}, "tle": {"line1": "1 37330U 93036BKW 25347.54916921  .00002102  00000+0  43870-3 0  9994", "line2": "2 37330  74.0177 293.5413 0056983 141.8805 218.6413 14.59543313863807"}}, "geometry": {"type": "Point", "coordinates": [-63.175062180403586, 15.62518492353123]}}]}